[{"OBJECT_NAME":"STARLINK-3233","OBJECT_ID":"2021-115Y","EPOCH":"2026-03-09T12:19:01.294752","MEAN_MOTION":15.0883373,"ECCENTRICITY":0.00012803,"INCLINATION":53.2174,"RA_OF_ASC_NODE":149.9127,"ARG_OF_PERICENTER":94.8594,"MEAN_ANOMALY":265.2545,"EPHEMERIS_TYPE":0,"CLASSIFICATION_TYPE":"U","NORAD_CAT_ID":49746,"ELEMENT_SET_NO":999,"REV_AT_EPOCH":23550,"BSTAR":4.1853167e-5,"MEAN_MOTION_DOT":3.78e-6,"MEAN_MOTION_DDOT":0},{"OBJECT_NAME":"OBJECT J","OBJECT_ID":"2024-205J","EPOCH":"2026-03-09T23:28:57.561600","MEAN_MOTION":15.10710806,"ECCENTRICITY":0.00148701,"INCLINATION":97.4211,"RA_OF_ASC_NODE":142.3026,"ARG_OF_PERICENTER":147.8528,"MEAN_ANOMALY":212.3612,"EPHEMERIS_TYPE":0,"CLASSIFICATION_TYPE":"U","NORAD_CAT_ID":61902,"ELEMENT_SET_NO":999,"REV_AT_EPOCH":7320,"BSTAR":0.00056466438,"MEAN_MOTION_DOT":9.322e-5,"MEAN_MOTION_DDOT":0}]
